[{"OBJECT_NAME":"FALCONSAT-6","OBJECT_ID":"2018-099BK","EPOCH":"2026-03-09T17:24:38.352096","MEAN_MOTION":15.26532865,"ECCENTRICITY":0.00143698,"INCLINATION":97.3865,"RA_OF_ASC_NODE":145.8165,"ARG_OF_PERICENTER":297.0944,"MEAN_ANOMALY":181.0714,"EPHEMERIS_TYPE":0,"CLASSIFICATION_TYPE":"U","NORAD_CAT_ID":43815,"ELEMENT_SET_NO":999,"REV_AT_EPOCH":39855,"BSTAR":0.00019476898,"MEAN_MOTION_DOT":5.029e-5,"MEAN_MOTION_DDOT":0},{"OBJECT_NAME":"STARLINK-32954","OBJECT_ID":"2025-075V","EPOCH":"2026-03-09T22:00:15.850368","MEAN_MOTION":15.27606305,"ECCENTRICITY":0.00010063,"INCLINATION":42.9995,"RA_OF_ASC_NODE":269.1906,"ARG_OF_PERICENTER":8.775,"MEAN_ANOMALY":351.3119,"EPHEMERIS_TYPE":0,"CLASSIFICATION_TYPE":"U","NORAD_CAT_ID":63567,"ELEMENT_SET_NO":999,"REV_AT_EPOCH":5196,"BSTAR":0.0013541156,"MEAN_MOTION_DOT":0.00037218,"MEAN_MOTION_DDOT":0}]
